{
  "type": "FeatureCollection",
  "features": [
    {
      "type": "Feature",
      "properties": {
        "norad_id": 29954,
        "name": "FENGYUN 1C DEB",
        "group": "fengyun-1c-debris",
        "lat": 41.78862519521663,
        "lon": -145.37244353026261,
        "alt_km": 808.4933911211383,
        "timestamp": "2025-12-13T05:42:57.831766+00:00",
        "meta_object_name": "FENGYUN 1C DEB",
        "meta_object_id": "1999-025KC",
        "meta_epoch": "2025-12-12T00:36:29.589408",
        "meta_mean_motion": 14.34225556,
        "meta_eccentricity": 0.0074307,
        "meta_inclination": 100.1511,
        "meta_ra_of_asc_node": 23.9914,
        "meta_arg_of_pericenter": 271.2842,
        "meta_mean_anomaly": 87.9826,
        "meta_ephemeris_type": 0,
        "meta_classification_type": "U",
        "meta_norad_cat_id": 29954,
        "meta_element_set_no": 999,
        "meta_rev_at_epoch": 98177,
        "meta_bstar": 0.0014708,
        "meta_mean_motion_dot": 4.199e-05,
        "meta_mean_motion_ddot": 0,
        "tle_line1": "1 29954U 99025KC  25346.02534247  .00004199  00000+0  14708-2 0  9995",
        "tle_line2": "2 29954 100.1511  23.9914 0074307 271.2842  87.9826 14.34225556981774"
      },
      "geometry": {
        "type": "Point",
        "coordinates": [
          -145.37244353026261,
          41.78862519521663
        ]
      }
    },
    {
      "type": "Feature",
      "properties": {
        "norad_id": 29955,
        "name": "FENGYUN 1C DEB",
        "group": "fengyun-1c-debris",
        "lat": -56.551529575802,
        "lon": -126.37488075997213,
        "alt_km": 766.0108658469544,
        "timestamp": "2025-12-13T05:42:57.831776+00:00",
        "meta_object_name": "FENGYUN 1C DEB",
        "meta_object_id": "1999-025KD",
        "meta_epoch": "2025-12-11T04:20:32.384832",
        "meta_mean_motion": 14.38218205,
        "meta_eccentricity": 0.00075196,
        "meta_inclination": 99.2734,
        "meta_ra_of_asc_node": 65.7254,
        "meta_arg_of_pericenter": 252.6953,
        "meta_mean_anomaly": 139.3297,
        "meta_ephemeris_type": 0,
        "meta_classification_type": "U",
        "meta_norad_cat_id": 29955,
        "meta_element_set_no": 999,
        "meta_rev_at_epoch": 98039,
        "meta_bstar": 0.0023547583,
        "meta_mean_motion_dot": 7.113e-05,
        "meta_mean_motion_ddot": 0,
        "tle_line1": "1 29955U 99025KD  25345.18093038  .00007113  00000+0  23548-2 0  9991",
        "tle_line2": "2 29955  99.2734  65.7254 0007519 252.6953 139.3297 14.38218205980396"
      },
      "geometry": {
        "type": "Point",
        "coordinates": [
          -126.37488075997213,
          -56.551529575802
        ]
      }
    },
    {
      "type": "Feature",
      "properties": {
        "norad_id": 29956,
        "name": "FENGYUN 1C DEB",
        "group": "fengyun-1c-debris",
        "lat": -62.102852902606045,
        "lon": 179.0809225048573,
        "alt_km": 906.0398362996702,
        "timestamp": "2025-12-13T05:42:57.831787+00:00",
        "meta_object_name": "FENGYUN 1C DEB",
        "meta_object_id": "1999-025KE",
        "meta_epoch": "2025-12-12T01:22:08.230080",
        "meta_mean_motion": 14.06170748,
        "meta_eccentricity": 0.00537834,
        "meta_inclination": 98.7919,
        "meta_ra_of_asc_node": 14.9315,
        "meta_arg_of_pericenter": 19.4946,
        "meta_mean_anomaly": 8.5075,
        "meta_ephemeris_type": 0,
        "meta_classification_type": "U",
        "meta_norad_cat_id": 29956,
        "meta_element_set_no": 999,
        "meta_rev_at_epoch": 97040,
        "meta_bstar": -8.922924e-06,
        "meta_mean_motion_dot": -5.8e-07,
        "meta_mean_motion_ddot": 0,
        "tle_line1": "1 29956U 99025KE  25346.05703970 -.00000058  00000+0 -89229-5 0  9996",
        "tle_line2": "2 29956  98.7919  14.9315 0053783  19.4946   8.5075 14.06170748970401"
      },
      "geometry": {
        "type": "Point",
        "coordinates": [
          179.0809225048573,
          -62.102852902606045
        ]
      }
    },
    {
      "type": "Feature",
      "properties": {
        "norad_id": 29957,
        "name": "FENGYUN 1C DEB",
        "group": "fengyun-1c-debris",
        "lat": 17.235245350362028,
        "lon": 111.44390494697399,
        "alt_km": 747.3565665000879,
        "timestamp": "2025-12-13T05:42:57.831798+00:00",
        "meta_object_name": "FENGYUN 1C DEB",
        "meta_object_id": "1999-025KF",
        "meta_epoch": "2025-12-11T07:35:10.945824",
        "meta_mean_motion": 14.51042458,
        "meta_eccentricity": 0.00380595,
        "meta_inclination": 98.9202,
        "meta_ra_of_asc_node": 112.1995,
        "meta_arg_of_pericenter": 182.1254,
        "meta_mean_anomaly": 240.4252,
        "meta_ephemeris_type": 0,
        "meta_classification_type": "U",
        "meta_norad_cat_id": 29957,
        "meta_element_set_no": 999,
        "meta_rev_at_epoch": 97471,
        "meta_bstar": 0.010087126,
        "meta_mean_motion_dot": 0.00040495,
        "meta_mean_motion_ddot": 0,
        "tle_line1": "1 29957U 99025KF  25345.31609891  .00040495  00000+0  10087-1 0  9991",
        "tle_line2": "2 29957  98.9202 112.1995 0038059 182.1254 240.4252 14.51042458974711"
      },
      "geometry": {
        "type": "Point",
        "coordinates": [
          111.44390494697399,
          17.235245350362028
        ]
      }
    },
    {
      "type": "Feature",
      "properties": {
        "norad_id": 29958,
        "name": "FENGYUN 1C DEB",
        "group": "fengyun-1c-debris",
        "lat": -44.058497569606686,
        "lon": 173.10106375883007,
        "alt_km": 862.2283304355151,
        "timestamp": "2025-12-13T05:42:57.831809+00:00",
        "meta_object_name": "FENGYUN 1C DEB",
        "meta_object_id": "1999-025KG",
        "meta_epoch": "2025-12-12T06:34:58.712160",
        "meta_mean_motion": 14.14456263,
        "meta_eccentricity": 0.00543765,
        "meta_inclination": 98.6686,
        "meta_ra_of_asc_node": 0.6548,
        "meta_arg_of_pericenter": 334.5859,
        "meta_mean_anomaly": 25.2642,
        "meta_ephemeris_type": 0,
        "meta_classification_type": "U",
        "meta_norad_cat_id": 29958,
        "meta_element_set_no": 999,
        "meta_rev_at_epoch": 97444,
        "meta_bstar": 0.0005129878,
        "meta_mean_motion_dot": 9.54e-06,
        "meta_mean_motion_ddot": 0,
        "tle_line1": "1 29958U 99025KG  25346.27429065  .00000954  00000+0  51299-3 0  9999",
        "tle_line2": "2 29958  98.6686   0.6548 0054376 334.5859  25.2642 14.14456263974448"
      },
      "geometry": {
        "type": "Point",
        "coordinates": [
          173.10106375883007,
          -44.058497569606686
        ]
      }
    },
    {
      "type": "Feature",
      "properties": {
        "norad_id": 29959,
        "name": "FENGYUN 1C DEB",
        "group": "fengyun-1c-debris",
        "lat": -6.673849709899775,
        "lon": -163.15161334022963,
        "alt_km": 899.8730550073506,
        "timestamp": "2025-12-13T05:42:57.831820+00:00",
        "meta_object_name": "FENGYUN 1C DEB",
        "meta_object_id": "1999-025KH",
        "meta_epoch": "2025-12-12T01:45:50.204736",
        "meta_mean_motion": 14.06015067,
        "meta_eccentricity": 0.00417034,
        "meta_inclination": 98.8084,
        "meta_ra_of_asc_node": 16.7554,
        "meta_arg_of_pericenter": 329.8939,
        "meta_mean_anomaly": 85.1536,
        "meta_ephemeris_type": 0,
        "meta_classification_type": "U",
        "meta_norad_cat_id": 29959,
        "meta_element_set_no": 999,
        "meta_rev_at_epoch": 96931,
        "meta_bstar": 0.00012417782,
        "meta_mean_motion_dot": 1.62e-06,
        "meta_mean_motion_ddot": 0,
        "tle_line1": "1 29959U 99025KH  25346.07349774  .00000162  00000+0  12418-3 0  9997",
        "tle_line2": "2 29959  98.8084  16.7554 0041703 329.8939  85.1536 14.06015067969315"
      },
      "geometry": {
        "type": "Point",
        "coordinates": [
          -163.15161334022963,
          -6.673849709899775
        ]
      }
    },
    {
      "type": "Feature",
      "properties": {
        "norad_id": 29960,
        "name": "FENGYUN 1C DEB",
        "group": "fengyun-1c-debris",
        "lat": -76.3330444509686,
        "lon": 11.357645702650434,
        "alt_km": 779.3577147800852,
        "timestamp": "2025-12-13T05:42:57.831831+00:00",
        "meta_object_name": "FENGYUN 1C DEB",
        "meta_object_id": "1999-025KJ",
        "meta_epoch": "2025-12-11T10:43:45.146784",
        "meta_mean_motion": 14.16399705,
        "meta_eccentricity": 0.00909862,
        "meta_inclination": 98.6144,
        "meta_ra_of_asc_node": 331.059,
        "meta_arg_of_pericenter": 290.0449,
        "meta_mean_anomaly": 222.8416,
        "meta_ephemeris_type": 0,
        "meta_classification_type": "U",
        "meta_norad_cat_id": 29960,
        "meta_element_set_no": 999,
        "meta_rev_at_epoch": 97436,
        "meta_bstar": 0.00077080462,
        "meta_mean_motion_dot": 1.551e-05,
        "meta_mean_motion_ddot": 0,
        "tle_line1": "1 29960U 99025KJ  25345.44705031  .00001551  00000+0  77080-3 0  9990",
        "tle_line2": "2 29960  98.6144 331.0590 0090986 290.0449 222.8416 14.16399705974360"
      },
      "geometry": {
        "type": "Point",
        "coordinates": [
          11.357645702650434,
          -76.3330444509686
        ]
      }
    }
  ]
}